NORAD_CAT_ID,OBJECT_NAME,OBJECT_TYPE,EPOCH,MEAN_MOTION,ECCENTRICITY,INCLINATION,RA_OF_ASC_NODE,ARG_OF_PERICENTER,MEAN_ANOMALY,BSTAR,MEAN_MOTION_DOT,MEAN_MOTION_DDOT,TLE_LINE0,TLE_LINE1,TLE_LINE2,SEMIMAJOR_AXIS,PERIOD,APOGEE,PERIGEE,DECAYED
54173.0,STARLINK-5242,PAYLOAD,2023-09-16 22:00:38,15.08845515,0.0001466,53.216,105.3803,91.2165,268.8995,0.00031041,4.656e-05,0.0,0 STARLINK-5242,1 54173U 22141S   23259.91711747  .00004656  00000-0  31041-3 0  9991,2 54173  53.2160 105.3803 0001466  91.2165 268.8995 15.08845515 49271,6917.864,95.437,540.743,538.714,0.0
54173.0,STARLINK-5242,PAYLOAD,2023-09-17 18:40:39,15.08845173,0.0001547,53.2166,101.5134,96.3085,263.8084,6.7192e-05,7.82e-06,0.0,0 STARLINK-5242,1 54173U 22141S   23260.77823562  .00000782  00000-0  67192-4 0  9999,2 54173  53.2166 101.5134 0001547  96.3085 263.8084 15.08845173 49408,6917.865,95.437,540.8,538.659,0.0
54173.0,STARLINK-5242,PAYLOAD,2023-09-17 23:26:48,15.08845902,0.0001536,53.2165,100.6208,96.4388,263.6779,7.5206e-05,9.09e-06,0.0,0 STARLINK-5242,1 54173U 22141S   23260.97695483  .00000909  00000-0  75206-4 0  9996,2 54173  53.2165 100.6208 0001536  96.4388 263.6779 15.08845902 49436,6917.862,95.437,540.79,538.665,0.0
54173.0,STARLINK-5242,PAYLOAD,2023-09-18 16:56:03,15.08842029,0.0001483,53.2177,97.3486,99.5091,260.6069,6.3479e-05,7.22e-06,0.0,0 STARLINK-5242,1 54173U 22141S   23261.70559658  .00000722  00000-0  63479-4 0  9993,2 54173  53.2177  97.3486 0001483  99.5091 260.6069 15.08842029 49543,6917.874,95.437,540.765,538.713,0.0
54173.0,STARLINK-5242,PAYLOAD,2023-09-18 20:06:49,15.08846187,0.0001312,53.217,96.7567,89.5415,270.5728,7.6552e-05,9.31e-06,0.0,0 STARLINK-5242,1 54173U 22141S   23261.83807424  .00000931  00000-0  76552-4 0  9992,2 54173  53.2170  96.7567 0001312  89.5415 270.5728 15.08846187 49562,6917.861,95.437,540.634,538.819,0.0
54173.0,STARLINK-5242,PAYLOAD,2023-09-18 21:42:12,15.08847579,0.0001352,53.2172,96.4589,91.5037,268.611,0.00010679,1.412e-05,0.0,0 STARLINK-5242,1 54173U 22141S   23261.90431241  .00001412  00000-0  10679-3 0  9992,2 54173  53.2172  96.4589 0001352  91.5037 268.6110 15.08847579 49572,6917.857,95.437,540.658,538.787,0.0
54173.0,STARLINK-5242,PAYLOAD,2023-09-19 18:22:13,15.0884269,0.0001269,53.2162,92.5939,87.3119,272.8018,1.5851e-05,-3.6e-07,0.0,0 STARLINK-5242,1 54173U 22141S   23262.76543376 -.00000036  00000-0  15851-4 0  9990,2 54173  53.2162  92.5939 0001269  87.3119 272.8018 15.08842690 49706,6917.872,95.437,540.615,538.859,0.0
54173.0,STARLINK-5242,PAYLOAD,2023-09-19 21:32:59,15.08844947,0.0001265,53.2162,91.9987,86.5021,273.6116,5.4351e-05,5.77e-06,0.0,0 STARLINK-5242,1 54173U 22141S   23262.89791228  .00000577  00000-0  54351-4 0  9992,2 54173  53.2162  91.9987 0001265  86.5021 273.6116 15.08844947 49728,6917.865,95.437,540.605,538.855,0.0
54173.0,STARLINK-5242,PAYLOAD,2023-09-20 18:13:02,15.08829032,0.0001355,53.217,88.1321,100.2066,259.9079,-7.7327e-05,-1.518e-05,0.0,0 STARLINK-5242,1 54173U 22141S   23263.75905258 -.00001518  00000-0 -77327-4 0  9994,2 54173  53.2170  88.1321 0001355 100.2066 259.9079 15.08829032 49857,6917.914,95.438,540.716,538.842,0.0
54173.0,STARLINK-5242,PAYLOAD,2023-09-20 21:23:48,15.08828186,0.0001335,53.2171,87.5347,99.8338,260.2805,-1.9655e-05,-6.01e-06,0.0,0 STARLINK-5242,1 54173U 22141S   23263.89153321 -.00000601  00000-0 -19655-4 0  9997,2 54173  53.2171  87.5347 0001335  99.8338 260.2805 15.08828186 49875,6917.916,95.438,540.705,538.858,0.0
54173.0,STARLINK-5242,PAYLOAD,2023-09-21 05:20:43,15.08834176,0.0001286,53.2173,86.0517,88.8289,271.2851,2.0949e-05,4.5e-07,0.0,0 STARLINK-5242,1 54173U 22141S   23264.22273105  .00000045  00000-0  20949-4 0  9996,2 54173  53.2173  86.0517 0001286  88.8289 271.2851 15.08834176 49923,6917.898,95.438,540.653,538.874,0.0
54173.0,STARLINK-5242,PAYLOAD,2023-09-21 18:03:48,15.08842233,0.0001229,53.2168,83.6726,89.7836,270.3297,0.00010771,1.427e-05,0.0,0 STARLINK-5242,1 54173U 22141S   23264.75264637  .00001427  00000-0  10771-3 0  9990,2 54173  53.2168  83.6726 0001229  89.7836 270.3297 15.08842233 50005,6917.874,95.437,540.589,538.888,0.0
54173.0,STARLINK-5242,PAYLOAD,2023-09-21 21:14:35,15.08843219,0.0001306,53.2166,83.0776,88.7774,271.3368,0.00021612,3.154e-05,0.0,0 STARLINK-5242,1 54173U 22141S   23264.88512738  .00003154  00000-0  21612-3 0  9997,2 54173  53.2166  83.0776 0001306  88.7774 271.3368 15.08843219 50025,6917.871,95.437,540.639,538.832,0.0
54173.0,STARLINK-5242,PAYLOAD,2023-09-22 05:11:30,15.08843253,0.000133,53.217,81.5902,85.7521,274.3623,0.00021821,3.187e-05,0.0,0 STARLINK-5242,1 54173U 22141S   23265.21632884  .00003187  00000-0  21821-3 0  9998,2 54173  53.2170  81.5902 0001330  85.7521 274.3623 15.08843253 50078,6917.87,95.437,540.656,538.815,0.0
54173.0,STARLINK-5242,PAYLOAD,2023-09-22 21:05:21,15.08858856,0.0001326,53.2166,78.6166,85.4947,274.6196,0.00055105,8.497e-05,0.0,0 STARLINK-5242,1 54173U 22141S   23265.87872449  .00008497  00000-0  55105-3 0  9994,2 54173  53.2166  78.6166 0001326  85.4947 274.6196 15.08858856 50170,6917.823,95.436,540.605,538.77,0.0
54173.0,STARLINK-5242,PAYLOAD,2023-09-23 05:02:17,15.08851005,0.0001353,53.2152,77.1321,80.1176,279.9969,0.00025194,3.725e-05,0.0,0 STARLINK-5242,1 54173U 22141S   23266.20992467  .00003725  00000-0  25194-3 0  9999,2 54173  53.2152  77.1321 0001353  80.1176 279.9969 15.08851005 50229,6917.847,95.437,540.648,538.776,0.0
54173.0,STARLINK-5242,PAYLOAD,2023-09-23 17:45:22,15.08843226,0.0001203,53.2158,74.7511,90.3855,269.7275,6.8918e-05,8.09e-06,0.0,0 STARLINK-5242,1 54173U 22141S   23266.73984571  .00000809  00000-0  68918-4 0  9996,2 54173  53.2158  74.7511 0001203  90.3855 269.7275 15.08843226 50302,6917.871,95.437,540.568,538.903,0.0
54173.0,STARLINK-5242,PAYLOAD,2023-09-24 14:25:23,15.08847176,0.0001289,53.2167,70.8861,86.2506,273.8633,6.611e-05,7.65e-06,0.0,0 STARLINK-5242,1 54173U 22141S   23267.60096193  .00000765  00000-0  66110-4 0  9990,2 54173  53.2167  70.8861 0001289  86.2506 273.8633 15.08847176 50434,6917.858,95.437,540.615,538.832,0.0
54173.0,STARLINK-5242,PAYLOAD,2023-09-24 17:36:09,15.08854547,0.0001225,53.217,70.2908,89.1821,270.9312,1.2251e-05,-9.3e-07,0.0,0 STARLINK-5242,1 54173U 22141S   23267.73343781 -.00000093  00000-0  12251-4 0  9994,2 54173  53.2170  70.2908 0001225  89.1821 270.9312 15.08854547 50450,6917.836,95.437,540.548,538.853,0.0
54173.0,STARLINK-5242,PAYLOAD,2023-09-25 11:05:23,15.08841214,0.0001334,53.2169,67.0199,89.6065,270.508,7.9677e-05,9.8e-06,0.0,0 STARLINK-5242,1 54173U 22141S   23268.46208297  .00000980  00000-0  79677-4 0  9996,2 54173  53.2169  67.0199 0001334  89.6065 270.5080 15.08841214 50567,6917.877,95.437,540.665,538.819,0.0
54173.0,STARLINK-5242,PAYLOAD,2023-09-25 17:26:56,15.08838825,0.0001413,53.2177,65.8334,82.5411,277.5742,0.00019967,2.891e-05,0.0,0 STARLINK-5242,1 54173U 22141S   23268.72704298  .00002891  00000-0  19967-3 0  9995,2 54173  53.2177  65.8334 0001413  82.5411 277.5742 15.08838825 50609,6917.884,95.438,540.726,538.771,0.0
54173.0,STARLINK-5242,PAYLOAD,2023-09-25 20:37:42,15.08848236,0.0001315,53.217,65.236,83.5139,276.6003,0.00014071,1.953e-05,0.0,0 STARLINK-5242,1 54173U 22141S   23268.85951643  .00001953  00000-0  14071-3 0  9996,2 54173  53.2170  65.2360 0001315  83.5139 276.6003 15.08848236 50623,6917.855,95.437,540.63,538.811,0.0
54173.0,STARLINK-5242,PAYLOAD,2023-09-26 14:06:57,15.08832266,0.0002061,53.2175,61.964,121.7622,238.3571,-7.9756e-05,-1.557e-05,0.0,0 STARLINK-5242,1 54173U 22141S   23269.58816698 -.00001557  00000-0 -79756-4 0  9991,2 54173  53.2175  61.9640 0002061 121.7622 238.3571 15.08832266 50736,6917.904,95.438,541.195,538.343,0.0
54173.0,STARLINK-5242,PAYLOAD,2023-09-26 17:17:44,15.08833954,0.0001529,53.2181,61.3713,97.824,262.2926,5.4587e-06,-2.01e-06,0.0,0 STARLINK-5242,1 54173U 22141S   23269.72065132 -.00000201  00000-0  54587-5 0  9996,2 54173  53.2181  61.3713 0001529  97.8240 262.2926 15.08833954 50752,6917.899,95.438,540.822,538.706,0.0
54173.0,STARLINK-5242,PAYLOAD,2023-09-27 09:11:35,15.08839254,0.0001436,53.2171,58.3967,90.141,269.9747,3.073e-06,-2.39e-06,0.0,0 STARLINK-5242,1 54173U 22141S   23270.38304772 -.00000239  00000-0  30730-5 0  9991,2 54173  53.2171  58.3967 0001436  90.1410 269.9747 15.08839254 50855,6917.883,95.438,540.741,538.754,0.0
54173.0,STARLINK-5242,PAYLOAD,2023-09-27 10:46:58,15.08838284,0.0001495,53.2175,58.0991,96.384,263.7323,2.9478e-05,1.81e-06,0.0,0 STARLINK-5242,1 54173U 22141S   23270.44928822  .00000181  00000-0  29478-4 0  9997,2 54173  53.2175  58.0991 0001495  96.3840 263.7323 15.08838284 50868,6917.886,95.438,540.785,538.716,0.0
54173.0,STARLINK-5242,PAYLOAD,2023-09-28 13:48:31,15.08837972,0.0001471,53.2181,53.0446,104.5819,255.5337,6.7428e-05,7.85e-06,0.0,0 STARLINK-5242,1 54173U 22141S   23271.57536998  .00000785  00000-0  67428-4 0  9998,2 54173  53.2181  53.0446 0001471 104.5819 255.5337 15.08837972 51034,6917.887,95.438,540.769,538.734,0.0
54173.0,STARLINK-5242,PAYLOAD,2023-09-28 16:59:18,15.08840506,0.0001329,53.2175,52.4491,97.5456,262.5687,9.725e-05,1.26e-05,0.0,0 STARLINK-5242,1 54173U 22141S   23271.70784906  .00001260  00000-0  97250-4 0  9992,2 54173  53.2175  52.4491 0001329  97.5456 262.5687 15.08840506 51055,6917.879,95.438,540.663,538.824,0.0
54173.0,STARLINK-5242,PAYLOAD,2023-09-29 13:39:18,15.08849172,0.0001338,53.2182,48.5847,87.811,272.3035,0.00020352,2.953e-05,0.0,0 STARLINK-5242,1 54173U 22141S   23272.56896572  .00002953  00000-0  20352-3 0  9998,2 54173  53.2182  48.5847 0001338  87.8110 272.3035 15.08849172 51181,6917.852,95.437,540.643,538.792,0.0
54173.0,STARLINK-5242,PAYLOAD,2023-09-29 16:50:04,15.08856416,0.0001445,53.2177,47.9895,75.9059,284.2094,0.00029576,4.424e-05,0.0,0 STARLINK-5242,1 54173U 22141S   23272.70144273  .00004424  00000-0  29576-3 0  9990,2 54173  53.2177  47.9895 0001445  75.9059 284.2094 15.08856416 51209,6917.83,95.437,540.695,538.696,0.0
